[{"OBJECT_ID":"2011-048A","OBJECT_NAME":"COSMOS 2473","NORAD_CAT_ID":"37806","OBJECT_TYPE":"PAYLOAD","PERIOD":"1436.113","INCLINATION":"0.0431","APOGEE":"35796.242","PERIGEE":"35777.588","ECCENTRICITY":"0.0002212","MEAN_MOTION":"1.00270649","TLE_LINE1":"1 37806U 11048A   16238.11026037 -.00000134 +00000-0 +00000-0 0  9997","TLE_LINE2":"2 37806 000.0431 138.4180 0002212 126.4957 095.0560 01.00270649018126","LAUNCH_DATE":"2011-09-20","LAUNCH_SITE":"TYURATAM MISSILE AND SPACE COMPLEX","OWNER":"COMMONWEALTH OF INDEPENDENT STATES","ORBIT_TYPE":"Geosynchronous","OPERATIONAL_STATUS":"Operational","satInfo":{"lng":-151.8499510037895,"lat":-0.8892539980673085,"elevation":-9.444097344485563,"azimuth":106.84995100378951,"range":42725.624287002,"height":35773.46285463261,"velocity":3.074836862583897},"x":-163.99003773047284,"y":301.0149042484372,"dx":-2.7111300651231627,"dy":-1.4506534739523633,"maxAlt":341.8714040246808,"minAlt":341.69225636046116},{"OBJECT_ID":"2011-049B","OBJECT_NAME":"ARABSAT 5C","NORAD_CAT_ID":"37810","OBJECT_TYPE":"PAYLOAD","PERIOD":"1436.079","INCLINATION":"0.0642","APOGEE":"35800.114","PERIGEE":"35772.379","ECCENTRICITY":"0.0003289","MEAN_MOTION":"1.00273033","TLE_LINE1":"1 37810U 11049B   16239.07369164  .00000095  00000-0  00000+0 0  9994","TLE_LINE2":"2 37810   0.0642   9.9373 0003289 146.6946 224.6340  1.00273033 17998","LAUNCH_DATE":"2011-09-21","LAUNCH_SITE":"FRENCH GUIANA","OWNER":"ARAB SATELLITE COMMUNICATIONS ORGANIZATION","ORBIT_TYPE":"Geosynchronous","OPERATIONAL_STATUS":"Operational","satInfo":{"lng":37.780575026279216,"lat":-0.3093186159760275,"elevation":-8.879245891155612,"azimuth":277.2194249737208,"range":42658.39892586673,"height":35769.650482787285,"velocity":3.0752118687759453},"x":208.5492555335451,"y":-273.41200459167624,"dx":2.4305329422980124,"dy":1.883995131167968,"maxAlt":341.9085896018149,"minAlt":341.6422306189086},{"OBJECT_ID":"2011-051A","OBJECT_NAME":"EUTE 7 WEST A (AB 7)","NORAD_CAT_ID":"37816","OBJECT_TYPE":"PAYLOAD","PERIOD":"1436.092","INCLINATION":"0.0803","APOGEE":"35801.106","PERIGEE":"35771.920","ECCENTRICITY":"0.0003461","MEAN_MOTION":"1.00272083","TLE_LINE1":"1 37816U 11051A   16238.09320598 -.00000086  00000-0  00000+0 0  9993","TLE_LINE2":"2 37816   0.0803  48.5749 0003461 126.7068 184.7166  1.00272083 18048","LAUNCH_DATE":"2011-09-24","LAUNCH_SITE":"SEA LAUNCH","OWNER":"EUROPEAN TELECOMMUNICATIONS SATELLITE ORGANIZATION (EUTELSAT)","ORBIT_TYPE":"Geosynchronous","OPERATIONAL_STATUS":"Operational","satInfo":{"lng":69.64530609038938,"lat":-1.70486410998362,"elevation":-10.227706967180092,"azimuth":245.3546939096106,"range":42866.934996653574,"height":35826.29975199759,"velocity":3.0730240489116953},"x":320.6757000842145,"y":-121.58201105791407,"dx":1.0688923876691276,"dy":2.8811362114229557,"maxAlt":341.91811648521286,"minAlt":341.6378225145944},{"OBJECT_ID":"2011-051B","OBJECT_NAME":"BLOCK DM-SL R/B","NORAD_CAT_ID":"37817","OBJECT_TYPE":"ROCKET BODY","PERIOD":"653.525","INCLINATION":"0.7721","APOGEE":"35566.498","PERIGEE":"1569.359","ECCENTRICITY":"0.6814129","MEAN_MOTION":"2.20343236","TLE_LINE1":"1 37817U 11051B   16238.96646324 -.00000245  00000-0  00000+0 0  9995","TLE_LINE2":"2 37817   0.7721  12.4848 6814129 129.5804 303.9531  2.20343236 39597","LAUNCH_DATE":"2011-09-24","LAUNCH_SITE":"SEA LAUNCH","OWNER":"SEA LAUNCH DEMO","ORBIT_TYPE":"Highly Elliptical Orbit","OPERATIONAL_STATUS":"N/A, derelict rocket body","satInfo":{"lng":14.902146087424773,"lat":-0.3260500944230766,"elevation":-13.738254580382277,"azimuth":300.0978539125752,"range":27405.2012548682,"height":20243.453019092038,"velocity":3.73717674442342},"x":48.09138436024946,"y":-189.77897248500594,"dx":3.6114822138238942,"dy":0.9610859682114274,"maxAlt":339.6650085615901,"minAlt":13.16623928942895},{"OBJECT_ID":"2011-054A","OBJECT_NAME":"QUETZSAT 1","NORAD_CAT_ID":"37826","OBJECT_TYPE":"PAYLOAD","PERIOD":"1436.053","INCLINATION":"0.0628","APOGEE":"35796.240","PERIGEE":"35775.267","ECCENTRICITY":"0.0002487","MEAN_MOTION":"1.00274792","TLE_LINE1":"1 37826U 11054A   16239.27414123 -.00000270  00000-0  00000+0 0  9991","TLE_LINE2":"2 37826   0.0628 291.1711 0002487 227.1172 198.3392  1.00274792 18184","LAUNCH_DATE":"2011-09-29","LAUNCH_SITE":"TYURATAM MISSILE AND SPACE COMPLEX","OWNER":"MEXICO","ORBIT_TYPE":"Geosynchronous","OPERATIONAL_STATUS":"Operational","satInfo":{"lng":-93.14926501094098,"lat":-1.7522819248887034,"elevation":-10.280988327730626,"azimuth":48.14926501094098,"range":42836.37351095233,"height":35790.168168886645,"velocity":3.074878908593065},"x":-345.10485838732114,"y":16.977556943276443,"dx":-0.1689257643368328,"dy":-3.070235233439564,"maxAlt":341.8713848172546,"minAlt":341.6699661423495},{"OBJECT_ID":"2011-056A","OBJECT_NAME":"INTELSAT 18","NORAD_CAT_ID":"37834","OBJECT_TYPE":"PAYLOAD","PERIOD":"1436.119","INCLINATION":"0.0196","APOGEE":"35794.352","PERIGEE":"35779.729","ECCENTRICITY":"0.0001734","MEAN_MOTION":"1.00270201","TLE_LINE1":"1 37834U 11056A   16239.54617060  .00000023  00000-0  00000+0 0  9992","TLE_LINE2":"2 37834   0.0196 128.4242 0001734  40.8872 182.5128  1.00270201 17930","LAUNCH_DATE":"2011-10-05","LAUNCH_SITE":"TYURATAM MISSILE AND SPACE COMPLEX","OWNER":"INTERNATIONAL TELECOMMUNICATIONS SATELLITE ORGANIZATION (INTELSAT)","ORBIT_TYPE":"Geosynchronous","OPERATIONAL_STATUS":"Operational","satInfo":{"lng":22.373262025263838,"lat":0.8880320028489098,"elevation":-7.709902549753426,"azimuth":292.62673797473616,"range":42521.96123490729,"height":35764.48344158022,"velocity":3.0755833322279},"x":128.83330184645177,"y":-319.5220058725634,"dx":2.8440649997955867,"dy":1.1706865978628964,"maxAlt":341.85325300691653,"minAlt":341.71281791021426},{"OBJECT_ID":"2011-057A","OBJECT_NAME":"EUTE 16A (EUTE W3C)","NORAD_CAT_ID":"37836","OBJECT_TYPE":"PAYLOAD","PERIOD":"1436.084","INCLINATION":"0.0657","APOGEE":"35803.559","PERIGEE":"35769.153","ECCENTRICITY":"0.000408","MEAN_MOTION":"1.00272643","TLE_LINE1":"1 37836U 11057A   16239.10396720  .00000076  00000-0  00000+0 0  9992","TLE_LINE2":"2 37836   0.0657 359.5914 0004080 157.0625 231.5346  1.00272643 17873","LAUNCH_DATE":"2011-10-07","LAUNCH_SITE":"Xichang Space Center, China","OWNER":"EUROPEAN TELECOMMUNICATIONS SATELLITE ORGANIZATION (EUTELSAT)","ORBIT_TYPE":"Geosynchronous","OPERATIONAL_STATUS":"Operational","satInfo":{"lng":22.91605625416884,"lat":-0.09056188121438327,"elevation":-8.664833348630456,"azimuth":292.0839437458311,"range":42638.60881878438,"height":35773.87038687546,"velocity":3.0751917643737556},"x":131.87144806439215,"y":-318.3522468731608,"dx":2.832486324203145,"dy":1.1974245741900946,"maxAlt":341.9416743934541,"minAlt":341.61124904043896},{"OBJECT_ID":"2011-074A","OBJECT_NAME":"AMOS 5","NORAD_CAT_ID":"37950","OBJECT_TYPE":"PAYLOAD","PERIOD":"1434.548","INCLINATION":"0.5664","APOGEE":"35766.807","PERIGEE":"35745.773","ECCENTRICITY":"0.0002496","MEAN_MOTION":"1.0037999","TLE_LINE1":"1 37950U 11074A   16239.11472117 -.00000148  00000-0  00000+0 0  9995","TLE_LINE2":"2 37950   0.5664  91.2664 0002496  52.0137 308.6800  1.00379990 17353","LAUNCH_DATE":"2011-12-11","LAUNCH_SITE":"TYURATAM MISSILE AND SPACE COMPLEX","OWNER":"ISRAEL","ORBIT_TYPE":"Geosynchronous","OPERATIONAL_STATUS":"Nonoperational","satInfo":{"lng":113.67363327126859,"lat":-2.833759658180133,"elevation":-11.333942365640198,"azimuth":201.3263667287314,"range":42941.14218315712,"height":35777.08058833473,"velocity":3.0746711724078923},"x":312.77317747242677,"y":136.05613866742294,"dx":-1.234561520346247,"dy":2.8159298057509328,"maxAlt":341.58871872949976,"minAlt":341.3867142280954},{"OBJECT_ID":"2011-074B","OBJECT_NAME":"LUCH 5A","NORAD_CAT_ID":"37951","OBJECT_TYPE":"PAYLOAD","PERIOD":"1436.059","INCLINATION":"1.6648","APOGEE":"35799.747","PERIGEE":"35771.986","ECCENTRICITY":"0.0003292","MEAN_MOTION":"1.00274389","TLE_LINE1":"1 37951U 11074B   16239.51323774 -.00000074  00000-0  00000+0 0  9992","TLE_LINE2":"2 37951   1.6648 208.2416 0003292 298.9651 179.7973  1.00274389 17275","LAUNCH_DATE":"2011-12-11","LAUNCH_SITE":"TYURATAM MISSILE AND SPACE COMPLEX","OWNER":"COMMONWEALTH OF INDEPENDENT STATES","ORBIT_TYPE":"Geosynchronous","OPERATIONAL_STATUS":"Operational","satInfo":{"lng":83.823805367028,"lat":0.5005414739436661,"elevation":-8.089394793123937,"azimuth":231.17619463297194,"range":42562.81206568038,"height":35762.76965437988,"velocity":3.075118269739278},"x":339.55644431849527,"y":-38.85652592152453,"dx":0.33084057988674603,"dy":3.0572695143844437,"maxAlt":341.9050650391062,"minAlt":341.6384563596592},{"OBJECT_ID":"2012-002C","OBJECT_NAME":"FENGYUN 2F AKM","NORAD_CAT_ID":"38072","OBJECT_TYPE":"ROCKET BODY","PERIOD":"1448.717","INCLINATION":"1.0965","APOGEE":"36285.313","PERIGEE":"35781.220","ECCENTRICITY":"0.0059429","MEAN_MOTION":"0.99398268","TLE_LINE1":"1 38072U 12002C   16239.41160662 -.00000197  00000-0  00000+0 0  9999","TLE_LINE2":"2 38072   1.0965  75.2120 0059429 128.1438  92.5013  0.99398268 16614","LAUNCH_DATE":"2012-01-13","LAUNCH_SITE":"Xichang Space Center, China","OWNER":"PEOPLES REPUBLIC OF CHINA","ORBIT_TYPE":"Geosynchronous","OPERATIONAL_STATUS":"N/A, derelict rocket body","satInfo":{"lng":137.08614402983216,"lat":-2.114665171164459,"elevation":-10.539560652439516,"azimuth":177.91385597016782,"range":43349.22184992744,"height":36268.74771327836,"velocity":3.0487658170545227},"x":235.26131319694983,"y":253.19264024758223,"dx":-2.2328497953231663,"dy":2.0758985521372244,"maxAlt":346.56830159558245,"minAlt":341.72713704645054}]